{
"type": "FeatureCollection",
"name": "hatyai_exits",
"crs": { "type": "name", "properties": { "name": "urn:ogc:def:crs:OGC:1.3:CRS84" } },
"features": [
{ "type": "Feature", "properties": { "name": "NE exit", "lat": 7.047593, "lon": 100.504407 }, "geometry": { "type": "Point", "coordinates": [ 100.504407, 7.047593 ] } },
{ "type": "Feature", "properties": { "name": "W exit", "lat": 6.99577, "lon": 100.429609 }, "geometry": { "type": "Point", "coordinates": [ 100.429609, 6.99577 ] } },
{ "type": "Feature", "properties": { "name": "N exit", "lat": 7.02865, "lon": 100.469593 }, "geometry": { "type": "Point", "coordinates": [ 100.469593, 7.02865 ] } },
{ "type": "Feature", "properties": { "name": "NW exit", "lat": 7.020617, "lon": 100.452278 }, "geometry": { "type": "Point", "coordinates": [ 100.452278, 7.020617 ] } },
{ "type": "Feature", "properties": { "name": "S exit", "lat": 6.986464, "lon": 100.467287 }, "geometry": { "type": "Point", "coordinates": [ 100.467287, 6.986464 ] } },
{ "type": "Feature", "properties": { "name": "SE exit", "lat": 6.987847, "lon": 100.482752 }, "geometry": { "type": "Point", "coordinates": [ 100.482752, 6.987847 ] } },
{ "type": "Feature", "properties": { "name": "E exit", "lat": 7.001698, "lon": 100.493066 }, "geometry": { "type": "Point", "coordinates": [ 100.493066, 7.001698 ] } },
{ "type": "Feature", "properties": { "name": "SW exit", "lat": 6.995627, "lon": 100.461109 }, "geometry": { "type": "Point", "coordinates": [ 100.461109, 6.995627 ] } }
]
}
